NORAD_CAT_ID,OBJECT_NAME,OBJECT_TYPE,EPOCH,MEAN_MOTION,ECCENTRICITY,INCLINATION,RA_OF_ASC_NODE,ARG_OF_PERICENTER,MEAN_ANOMALY,BSTAR,MEAN_MOTION_DOT,MEAN_MOTION_DDOT,TLE_LINE0,TLE_LINE1,TLE_LINE2,SEMIMAJOR_AXIS,PERIOD,APOGEE,PERIGEE,DECAYED
53560.0,STARLINK-4564,PAYLOAD,2022-09-10 22:00:00,15.73159377,0.0002011,53.2153,45.2163,35.1213,209.0426,0.0006469,0.00091001,0.0,0 STARLINK-4564,1 53560U 22101AK  22253.91667824  .00091001  00000-0  64690-3 0  9991,2 53560  53.2153  45.2163 0002011  35.1213 209.0426 15.73159377  1305,6728.011,91.536,351.22900000000016,348.523,0.0
53560.0,STARLINK-4564,PAYLOAD,2022-09-11 04:00:00,15.73231542,0.0001797,53.2156,43.9775,36.5461,184.2976,-0.00038457,-0.00054321,0.0,0 STARLINK-4564,1 53560U 22101AK  22254.16667824 -.00054321  00000-0 -38457-3 0  9997,2 53560  53.2156  43.9775 0001797  36.5461 184.2976 15.73231542  3549,6727.805,91.531,350.879,348.461,0.0
53560.0,STARLINK-4564,PAYLOAD,2022-09-11 14:00:01,15.73204556,0.0002136,53.2174,41.9121,41.3696,20.5751,-2.4146e-06,-9.6e-06,0.0,0 STARLINK-4564,1 53560U 22101AK  22254.58334491 -.00000960  00000-0 -24146-5 0  9996,2 53560  53.2174  41.9121 0002136  41.3696  20.5751 15.73204556  1304,6727.882,91.533,351.184,348.31,0.0
53560.0,STARLINK-4564,PAYLOAD,2022-09-11 20:00:01,15.7317297,0.0001933,53.216,40.6802,25.2269,13.5327,0.00037647,0.00052486,0.0,0 STARLINK-4564,1 53560U 22101AK  22254.83334491  .00052486  00000-0  37647-3 0  9990,2 53560  53.2160  40.6802 0001933  25.2269  13.5327 15.73172970  3657,6727.972,91.535,351.13800000000015,348.537,0.0
53560.0,STARLINK-4564,PAYLOAD,2022-09-11 22:00:00,15.73205154,0.0001934,53.2159,40.2677,24.557,126.4224,-7.4864e-05,-0.00011117,0.0,0 STARLINK-4564,1 53560U 22101AK  22254.91667824 -.00011117  00000-0 -74864-4 0  9999,2 53560  53.2159  40.2677 0001934  24.5570 126.4224 15.73205154  1300,6727.88,91.533,351.047,348.444,0.0
53560.0,STARLINK-4564,PAYLOAD,2022-09-12 04:00:00,15.73166818,0.0001839,53.2164,39.0287,27.5878,100.1019,0.00032628,0.00045355,0.0,0 STARLINK-4564,1 53560U 22101AK  22255.16667824  .00045355  00000-0  32628-3 0  9997,2 53560  53.2164  39.0287 0001839  27.5878 100.1019 15.73166818  3707,6727.99,91.535,351.092,348.61800000000005,0.0
53560.0,STARLINK-4564,PAYLOAD,2022-09-12 12:00:00,15.73229656,0.0001908,53.2166,37.3795,31.3033,185.2878,0.00022162,0.00030636,0.0,0 STARLINK-4564,1 53560U 22101AK  22255.50001157  .00030636  00000-0  22162-3 0  9994,2 53560  53.2166  37.3795 0001908  31.3033 185.2878 15.73229656  1308,6727.811,91.531,350.959,348.392,0.0
53560.0,STARLINK-4564,PAYLOAD,2022-09-12 20:00:01,15.730745,0.0002000999999999,53.217,35.7287,37.9927,267.6251,0.00098896,0.00139755,0.0,0 STARLINK-4564,1 53560U 22101AK  22255.83335648  .00139755  00000-0  98896-3 0  9994,2 53560  53.2170  35.7287 0002001  37.9927 267.6251 15.73074500  3803,6728.253000000002,91.54,351.464,348.772,0.0
53560.0,STARLINK-4564,PAYLOAD,2022-09-12 22:00:00,15.73051274,0.0001858,53.2166,35.3155,36.9072,20.8614,0.0015923,0.00227556,0.0,0 STARLINK-4564,1 53560U 22101AK  22255.91667824  .00227556  00000-0  15923-2 0  9993,2 53560  53.2166  35.3155 0001858  36.9072  20.8614 15.73051274  1305,6728.319,91.542,351.434,348.934,0.0
53560.0,STARLINK-4564,PAYLOAD,2022-09-13 06:00:00,15.73193094,0.0001921,53.2159,33.6675,27.2723,119.4506,0.00015784,0.00021582,0.0,0 STARLINK-4564,1 53560U 22101AK  22256.25001157  .00021582  00000-0  15784-3 0  9999,2 53560  53.2159  33.6675 0001921  27.2723 119.4506 15.73193094  3878,6727.915,91.534,351.07199999999995,348.487,0.0
53560.0,STARLINK-4564,PAYLOAD,2022-09-13 14:00:01,15.73240877,0.0002104,53.2163,32.0196,25.0216,210.6239,-0.00040157,-0.00056704,0.0,0 STARLINK-4564,1 53560U 22101AK  22256.58334491 -.00056704  00000-0 -40157-3 0  9993,2 53560  53.2163  32.0196 0002104  25.0216 210.6239 15.73240877  1306,6727.779,91.531,351.059,348.228,0.0
53560.0,STARLINK-4564,PAYLOAD,2022-09-13 22:00:00,15.73270078,0.0002346,53.2164,30.3692,21.4191,303.1647,-0.0010799,-0.00149982,0.0,0 STARLINK-4564,1 53560U 22101AK  22256.91667824 -.00149982  00000-0 -10799-2 0  9998,2 53560  53.2164  30.3692 0002346  21.4191 303.1647 15.73270078  1306,6727.695,91.529,351.139,347.982,0.0
53560.0,STARLINK-4564,PAYLOAD,2022-09-14 04:00:00,15.73069672,0.0002311,53.2172,29.129,32.8042,268.5428,0.00044245,0.00061589,0.0,0 STARLINK-4564,1 53560U 22101AK  22257.16667824  .00061589  00000-0  44245-3 0  9994,2 53560  53.2172  29.1290 0002311  32.8042 268.5428 15.73069672  4016,6728.267,91.541,351.68699999999984,348.577,0.0
53560.0,STARLINK-4564,PAYLOAD,2022-09-14 12:00:00,15.73169677,0.0002346,53.2175,27.4783,34.628,355.5080000000001,0.00040223,0.00056138,0.0,0 STARLINK-4564,1 53560U 22101AK  22257.50001157  .00056138  00000-0  40223-3 0  9999,2 53560  53.2175  27.4783 0002346  34.6280 355.5080 15.73169677  4061,6727.982,91.535,351.425,348.26800000000014,0.0
53560.0,STARLINK-4564,PAYLOAD,2022-09-14 14:00:01,15.73221224,0.0002302,53.2166,27.0713,21.3818,120.973,-2.2151e-05,-3.732e-05,0.0,0 STARLINK-4564,1 53560U 22101AK  22257.58334491 -.00003732  00000-0 -22151-4 0  9992,2 53560  53.2166  27.0713 0002302  21.3818 120.9730 15.73221224  1309,6727.835,91.532,351.24800000000016,348.151,0.0
53560.0,STARLINK-4564,PAYLOAD,2022-09-14 22:00:00,15.73203919,0.0002420999999999,53.2161,25.4221,17.2026,214.1054,0.00011318,0.00015296,0.0,0 STARLINK-4564,1 53560U 22101AK  22257.91667824  .00015296  00000-0  11318-3 0  9996,2 53560  53.2161  25.4221 0002421  17.2026 214.1054 15.73203919  1303,6727.884,91.533,351.37800000000016,348.12,0.0
53560.0,STARLINK-4564,PAYLOAD,2022-09-15 04:00:00,15.73214285,0.0002247,53.2163,24.1835,19.1453,188.8692,-0.00018872,-0.00027041,0.0,0 STARLINK-4564,1 53560U 22101AK  22258.16667824 -.00027041  00000-0 -18872-3 0  9999,2 53560  53.2163  24.1835 0002247  19.1453 188.8692 15.73214285  4174,6727.854,91.532,351.231,348.208,0.0
53560.0,STARLINK-4564,PAYLOAD,2022-09-15 14:00:01,15.73247403,0.0002466,53.2164,22.1231,20.6472,28.5385,-0.00028231,-0.0004013999999999,0.0,0 STARLINK-4564,1 53560U 22101AK  22258.58334491 -.00040140  00000-0 -28231-3 0  9991,2 53560  53.2164  22.1231 0002466  20.6472  28.5385 15.73247403  1303,6727.76,91.53,351.284,347.966,0.0
53560.0,STARLINK-4564,PAYLOAD,2022-09-15 22:00:00,15.73213861,0.0002548,53.2164,20.4736,17.6012,120.5519,3.6708e-05,4.536e-05,0.0,0 STARLINK-4564,1 53560U 22101AK  22258.91667824  .00004536  00000-0  36708-4 0  9993,2 53560  53.2164  20.4736 0002548  17.6012 120.5519 15.73213861  4295,6727.856,91.532,351.435,348.006,0.0
53560.0,STARLINK-4564,PAYLOAD,2022-09-16 14:00:01,15.73226735,0.0002618999999999,53.2166,17.1745,17.6147,298.4237,-0.00090267,-0.00125603,0.0,0 STARLINK-4564,1 53560U 22101AK  22259.58334491 -.00125603  00000-0 -90267-3 0  9998,2 53560  53.2166  17.1745 0002619  17.6147 298.4237 15.73226735  4395,6727.819,91.532,351.446,347.922,0.0
53560.0,STARLINK-4564,PAYLOAD,2022-09-16 22:00:00,15.73140788,0.0002692,53.2162,15.5249,11.9612,32.9837,0.00021382,0.0002942,0.0,0 STARLINK-4564,1 53560U 22101AK  22259.91667824  .00029420  00000-0  21382-3 0  9994,2 53560  53.2162  15.5249 0002692  11.9612  32.9837 15.73140788  4454,6728.064,91.537,351.74,348.11800000000005,0.0
53560.0,STARLINK-4564,PAYLOAD,2022-09-17 14:00:01,15.73233039,0.0002755,53.2164,12.2264,15.6846,207.037,-0.00023096,-0.00032962,0.0,0 STARLINK-4564,1 53560U 22101AK  22260.58334491 -.00032962  00000-0 -23096-3 0  9991,2 53560  53.2164  12.2264 0002755  15.6846 207.0370 15.73233039  4557,6727.801,91.531,351.519,347.81199999999984,0.0
53560.0,STARLINK-4564,PAYLOAD,2022-09-17 22:00:00,15.73203297,0.0002881,53.2164,10.5764,16.7296,294.9503,0.00013652,0.00018586,0.0,0 STARLINK-4564,1 53560U 22101AK  22260.91667824  .00018586  00000-0  13652-3 0  9998,2 53560  53.2164  10.5764 0002881  16.7296 294.9503 15.73203297  1300,6727.886,91.533,351.689,347.81199999999984,0.0
53560.0,STARLINK-4564,PAYLOAD,2022-09-18 04:00:00,15.73205546,0.0002726999999999,53.2167,9.3378,17.5222,270.8603,0.00030907,0.00042993,0.0,0 STARLINK-4564,1 53560U 22101AK  22261.16667824  .00042993  00000-0  30907-3 0  9997,2 53560  53.2167   9.3378 0002727  17.5222 270.8603 15.73205546  4640,6727.879,91.533,351.579,347.91,0.0
53560.0,STARLINK-4564,PAYLOAD,2022-09-18 14:00:01,15.73206191,0.0002998999999999,53.2167,7.2775,15.7784,113.8657,0.00027917,0.00038756,0.0,0 STARLINK-4564,1 53560U 22101AK  22261.58335648  .00038756  00000-0  27917-3 0  9998,2 53560  53.2167   7.2775 0002999  15.7784 113.8657 15.73206191  4712,6727.878000000002,91.533,351.76,347.725,0.0
53560.0,STARLINK-4564,PAYLOAD,2022-09-18 22:00:00,15.73273434,0.0002987,53.2164,5.6275,13.001,205.5229,-0.00065627,-0.00092039,0.0,0 STARLINK-4564,1 53560U 22101AK  22261.91667824 -.00092039  00000-0 -65627-3 0  9995,2 53560  53.2164   5.6275 0002987  13.0010 205.5229 15.73273434  1306,6727.686,91.529,351.56,347.541,0.0
53560.0,STARLINK-4564,PAYLOAD,2022-09-19 06:00:02,15.73205477,0.0002938,53.2174,3.971,19.3621,288.1364,-7.8559e-06,-1.726e-05,0.0,0 STARLINK-4564,1 53560U 22101AK  22262.25002315 -.00001726  00000-0 -78559-5 0  9994,2 53560  53.2174   3.9710 0002938  19.3621 288.1364 15.73205477  4813,6727.88,91.533,351.721,347.76800000000014,0.0
53560.0,STARLINK-4564,PAYLOAD,2022-09-19 14:00:01,15.73205864,0.0003067,53.2173,2.3234,19.5197,16.8467,-2.0599e-05,-3.514e-05,0.0,0 STARLINK-4564,1 53560U 22101AK  22262.58334491 -.00003514  00000-0 -20599-4 0  9990,2 53560  53.2173   2.3234 0003067  19.5197  16.8467 15.73205864  1301,6727.878000000002,91.533,351.807,347.68,0.0
53560.0,STARLINK-4564,PAYLOAD,2022-09-19 22:00:00,15.731917800000002,0.0003126,53.2167,0.6787,13.4813,111.904,6.4328e-05,8.413e-05,0.0,0 STARLINK-4564,1 53560U 22101AK  22262.91667824  .00008413  00000-0  64328-4 0  9995,2 53560  53.2167   0.6787 0003126  13.4813 111.9040 15.73191780  4928,6727.919,91.534,351.88699999999994,347.68,0.0
